{
  "links" : {
    "next" : "https://api.nasa.gov/neo/rest/v1/feed?start_date=1997-10-16&end_date=1997-10-16&detailed=true&api_key=t0TVs3DtDT2H8Oy2Zy8m2eVrNsAVKAexjcZXUckd",
    "prev" : "https://api.nasa.gov/neo/rest/v1/feed?start_date=1997-10-14&end_date=1997-10-14&detailed=true&api_key=t0TVs3DtDT2H8Oy2Zy8m2eVrNsAVKAexjcZXUckd",
    "self" : "https://api.nasa.gov/neo/rest/v1/feed?start_date=1997-10-15&end_date=1997-10-15&detailed=true&api_key=t0TVs3DtDT2H8Oy2Zy8m2eVrNsAVKAexjcZXUckd"
  },
  "element_count" : 4,
  "near_earth_objects" : {
    "1997-10-15" : [ {
      "links" : {
        "self" : "https://api.nasa.gov/neo/rest/v1/neo/2003361?api_key=t0TVs3DtDT2H8Oy2Zy8m2eVrNsAVKAexjcZXUckd"
      },
      "neo_reference_id" : "2003361",
      "name" : "3361 Orpheus (1982 HR)",
      "nasa_jpl_url" : "http://ssd.jpl.nasa.gov/sbdb.cgi?sstr=2003361",
      "absolute_magnitude_h" : 19.03,
      "estimated_diameter" : {
        "kilometers" : {
          "estimated_diameter_min" : 0.4154846434,
          "estimated_diameter_max" : 0.9290519063
        },
        "meters" : {
          "estimated_diameter_min" : 415.484643414,
          "estimated_diameter_max" : 929.0519062809
        },
        "miles" : {
          "estimated_diameter_min" : 0.2581701084,
          "estimated_diameter_max" : 0.5772859121
        },
        "feet" : {
          "estimated_diameter_min" : 1363.1386374983,
          "estimated_diameter_max" : 3048.0706562026
        }
      },
      "is_potentially_hazardous_asteroid" : true,
      "close_approach_data" : [ {
        "close_approach_date" : "1997-10-15",
        "epoch_date_close_approach" : 876898800000,
        "relative_velocity" : {
          "kilometers_per_second" : "6.0231915198",
          "kilometers_per_hour" : "21683.4894714354",
          "miles_per_hour" : "13473.2771107372"
        },
        "miss_distance" : {
          "astronomical" : "0.3368987564",
          "lunar" : "131.053604126",
          "kilometers" : "50399336",
          "miles" : "31316694"
        },
        "orbiting_body" : "Earth"
      } ],
      "orbital_data" : {
        "orbit_id" : "96",
        "orbit_determination_date" : "2017-09-27 06:51:27",
        "orbit_uncertainty" : "0",
        "minimum_orbit_intersection" : ".0138088",
        "jupiter_tisserand_invariant" : "5.214",
        "epoch_osculation" : "2455114.5",
        "eccentricity" : ".3228581886085485",
        "semi_major_axis" : "1.209479358540941",
        "inclination" : "2.685420187053894",
        "ascending_node_longitude" : "189.5827798809539",
        "orbital_period" : "485.8431884185435",
        "perihelion_distance" : ".8189890436829836",
        "perihelion_argument" : "301.7031549811845",
        "aphelion_distance" : "1.599969673398898",
        "perihelion_time" : "2455219.776320994203",
        "mean_anomaly" : "281.9923702516469",
        "mean_motion" : ".740979823493723",
        "equinox" : "J2000"
      }
    }, {
      "links" : {
        "self" : "https://api.nasa.gov/neo/rest/v1/neo/3392452?api_key=t0TVs3DtDT2H8Oy2Zy8m2eVrNsAVKAexjcZXUckd"
      },
      "neo_reference_id" : "3392452",
      "name" : "(2007 VL8)",
      "nasa_jpl_url" : "http://ssd.jpl.nasa.gov/sbdb.cgi?sstr=3392452",
      "absolute_magnitude_h" : 21.2,
      "estimated_diameter" : {
        "kilometers" : {
          "estimated_diameter_min" : 0.1529519353,
          "estimated_diameter_max" : 0.3420109247
        },
        "meters" : {
          "estimated_diameter_min" : 152.9519353442,
          "estimated_diameter_max" : 342.0109247198
        },
        "miles" : {
          "estimated_diameter_min" : 0.095039897,
          "estimated_diameter_max" : 0.2125156703
        },
        "feet" : {
          "estimated_diameter_min" : 501.8108275547,
          "estimated_diameter_max" : 1122.0831222578
        }
      },
      "is_potentially_hazardous_asteroid" : false,
      "close_approach_data" : [ {
        "close_approach_date" : "1997-10-15",
        "epoch_date_close_approach" : 876898800000,
        "relative_velocity" : {
          "kilometers_per_second" : "13.5269137058",
          "kilometers_per_hour" : "48696.8893407778",
          "miles_per_hour" : "30258.3532684405"
        },
        "miss_distance" : {
          "astronomical" : "0.1334233465",
          "lunar" : "51.9016799927",
          "kilometers" : "19959848",
          "miles" : "12402475"
        },
        "orbiting_body" : "Earth"
      } ],
      "orbital_data" : {
        "orbit_id" : "17",
        "orbit_determination_date" : "2017-04-06 09:05:19",
        "orbit_uncertainty" : "1",
        "minimum_orbit_intersection" : ".110522",
        "jupiter_tisserand_invariant" : "6.341",
        "epoch_osculation" : "2458000.5",
        "eccentricity" : ".3593263456416781",
        "semi_major_axis" : ".9358447868738138",
        "inclination" : "9.343754652170132",
        "ascending_node_longitude" : "62.37793343357152",
        "orbital_period" : "330.6771341044544",
        "perihelion_distance" : ".5995710995186311",
        "perihelion_argument" : "194.6893803088805",
        "aphelion_distance" : "1.272118474228996",
        "perihelion_time" : "2457939.045501557281",
        "mean_anomaly" : "66.90398929243909",
        "mean_motion" : "1.08867521479814",
        "equinox" : "J2000"
      }
    }, {
      "links" : {
        "self" : "https://api.nasa.gov/neo/rest/v1/neo/3648873?api_key=t0TVs3DtDT2H8Oy2Zy8m2eVrNsAVKAexjcZXUckd"
      },
      "neo_reference_id" : "3648873",
      "name" : "(2013 TB6)",
      "nasa_jpl_url" : "http://ssd.jpl.nasa.gov/sbdb.cgi?sstr=3648873",
      "absolute_magnitude_h" : 22.6,
      "estimated_diameter" : {
        "kilometers" : {
          "estimated_diameter_min" : 0.0802703167,
          "estimated_diameter_max" : 0.1794898848
        },
        "meters" : {
          "estimated_diameter_min" : 80.2703167283,
          "estimated_diameter_max" : 179.4898847799
        },
        "miles" : {
          "estimated_diameter_min" : 0.049877647,
          "estimated_diameter_max" : 0.1115298092
        },
        "feet" : {
          "estimated_diameter_min" : 263.3540659348,
          "estimated_diameter_max" : 588.8775935812
        }
      },
      "is_potentially_hazardous_asteroid" : false,
      "close_approach_data" : [ {
        "close_approach_date" : "1997-10-15",
        "epoch_date_close_approach" : 876898800000,
        "relative_velocity" : {
          "kilometers_per_second" : "11.8704454708",
          "kilometers_per_hour" : "42733.6036947853",
          "miles_per_hour" : "26552.9994735737"
        },
        "miss_distance" : {
          "astronomical" : "0.1329367042",
          "lunar" : "51.7123756409",
          "kilometers" : "19887048",
          "miles" : "12357238"
        },
        "orbiting_body" : "Earth"
      } ],
      "orbital_data" : {
        "orbit_id" : "18",
        "orbit_determination_date" : "2017-04-06 08:44:19",
        "orbit_uncertainty" : "5",
        "minimum_orbit_intersection" : ".0486739",
        "jupiter_tisserand_invariant" : "7.283",
        "epoch_osculation" : "2458000.5",
        "eccentricity" : ".4834279187461137",
        "semi_major_axis" : ".7855656503866447",
        "inclination" : "14.35070280320103",
        "ascending_node_longitude" : "22.6251222589067",
        "orbital_period" : "254.3151043914417",
        "perihelion_distance" : ".4058012829817919",
        "perihelion_argument" : "201.859670302503",
        "aphelion_distance" : "1.165330017791498",
        "perihelion_time" : "2458016.515206882195",
        "mean_anomaly" : "337.3294060083983",
        "mean_motion" : "1.415566727196384",
        "equinox" : "J2000"
      }
    }, {
      "links" : {
        "self" : "https://api.nasa.gov/neo/rest/v1/neo/3708363?api_key=t0TVs3DtDT2H8Oy2Zy8m2eVrNsAVKAexjcZXUckd"
      },
      "neo_reference_id" : "3708363",
      "name" : "(2015 BO509)",
      "nasa_jpl_url" : "http://ssd.jpl.nasa.gov/sbdb.cgi?sstr=3708363",
      "absolute_magnitude_h" : 19.4,
      "estimated_diameter" : {
        "kilometers" : {
          "estimated_diameter_min" : 0.3503926411,
          "estimated_diameter_max" : 0.7835017643
        },
        "meters" : {
          "estimated_diameter_min" : 350.3926411083,
          "estimated_diameter_max" : 783.5017643338
        },
        "miles" : {
          "estimated_diameter_min" : 0.2177238258,
          "estimated_diameter_max" : 0.4868452748
        },
        "feet" : {
          "estimated_diameter_min" : 1149.5821926537,
          "estimated_diameter_max" : 2570.543928497
        }
      },
      "is_potentially_hazardous_asteroid" : false,
      "close_approach_data" : [ {
        "close_approach_date" : "1997-10-15",
        "epoch_date_close_approach" : 876898800000,
        "relative_velocity" : {
          "kilometers_per_second" : "27.5917949172",
          "kilometers_per_hour" : "99330.4617020899",
          "miles_per_hour" : "61720.0860503903"
        },
        "miss_distance" : {
          "astronomical" : "0.3104736533",
          "lunar" : "120.7742538452",
          "kilometers" : "46446196",
          "miles" : "28860330"
        },
        "orbiting_body" : "Earth"
      } ],
      "orbital_data" : {
        "orbit_id" : "21",
        "orbit_determination_date" : "2017-08-05 06:17:25",
        "orbit_uncertainty" : "1",
        "minimum_orbit_intersection" : ".213243",
        "jupiter_tisserand_invariant" : "3.892",
        "epoch_osculation" : "2458000.5",
        "eccentricity" : ".6683085448769424",
        "semi_major_axis" : "1.694635659250902",
        "inclination" : "14.66852158764893",
        "ascending_node_longitude" : "307.3766004149622",
        "orbital_period" : "805.7734214739581",
        "perihelion_distance" : ".5620961677203538",
        "perihelion_argument" : "332.5977403061831",
        "aphelion_distance" : "2.82717515078145",
        "perihelion_time" : "2457943.737248959067",
        "mean_anomaly" : "25.36021892774277",
        "mean_motion" : ".4467757193349358",
        "equinox" : "J2000"
      }
    } ]
  }
}